IRIDIUM 171             
1 43929U 19002H   25096.75924683 -.00000166  00000+0 -66182-4 0  9996
2 43929  86.4048 176.2352 0002068 107.2314 252.9108 14.34216746326409
IRIDIUM 170             
1 43930U 19002J   25096.94842955  .00002298  00000+0  36049-3 0  9994
2 43930  86.6160 175.9253 0001889  97.9194 262.2237 14.72253501335077
IRIDIUM 167             
1 43931U 19002K   25096.82267242 -.00000046  00000+0 -23640-4 0  9997
2 43931  86.4037 175.9697 0001732 105.3072 254.8315 14.34217307326411
IRIDIUM 181             
1 56726U 23068S   25096.88599048  .00000972  00000+0  28284-3 0  9992
2 56726  86.4502 238.9959 0002138 110.6674 249.4756 14.43306138 99500
IRIDIUM 177             
1 56727U 23068T   25096.75140025  .00003286  00000+0  42906-3 0  9994
2 56727  86.2027 176.0157 0002088 106.1397 254.0054 14.80220926101800
IRIDIUM 174             
1 56728U 23068U   25095.05592673  .00003489  00000+0  45530-3 0  9998
2 56728  86.2033 176.9456 0002820  97.4869 262.6672 14.80257143101553
IRIDIUM 178             
1 56729U 23068V   25096.87570139  .00003403  00000+0  44447-3 0  9995
2 56729  86.6599 207.5681 0002358 101.4474 258.7013 14.80228205101822
